PR-CUNAR 2              
1 49277U 98067SW  22235.55219056  .00818764  37620-3  88645-3 0  9995
2 49277  51.6137 329.4115 0011956 337.4596  22.5891 16.09172487 49362
1998-067TD              
1 51441U 98067TD  22235.87387148  .00044856  00000+0  38142-3 0  9992
2 51441  51.6370 347.6770 0002936 112.0586 248.0723 15.69134231 32732
PATCOOL                 
1 51442U 98067TE  22235.58231316  .00043112  00000+0  36058-3 0  9994
2 51442  51.6355 348.7051 0002685 121.1964 238.9297 15.69554211 32651
LIGHT-1                 
1 51509U 98067TG  22235.82836283  .00028939  00000+0  30675-3 0  9998
2 51509  51.6403 351.1552 0005682 112.4880 247.6717 15.63849289 31427
PROGRESS-MS 19          
1 51660U 22014A   22235.50869149  .00006706  00000+0  12409-3 0  9990
2 51660  51.6449   3.0638 0005034 151.5393 297.8763 15.50297674355627
SOYUZ-MS 21             
1 52086U 22028A   22235.50869149  .00006706  00000+0  12409-3 0  9998
2 52086  51.6449   3.0638 0005034 151.5393 297.8763 15.50297674355620
IHI-SAT                 
1 52147U 98067TJ  22235.87050979  .00045212  00000+0  51142-3 0  9997
2 52147  51.6371 354.4065 0001640 205.2443 154.8471 15.61973756 23838
KITSUNE                 
1 52148U 98067TK  22235.75899559  .00025318  00000+0  34096-3 0  9994
2 52148  51.6433 357.2067 0003662 165.6121 307.5091 15.57673468 23724
CREW DRAGON 4           
1 52318U 22042A   22235.50869149  .00006706  00000+0  12409-3 0  9992
2 52318  51.6449   3.0638 0005034 151.5393 297.8763 15.50297674355628
TIANZHOU-4              
1 52509U 22050A   22235.31661118  .00015452  00000+0  17679-3 0  9990
2 52509  41.4725 170.0584 0003879 165.6748 332.9984 15.61801300 75268
PROGRESS-MS 20          
1 52795U 22059A   22235.50869149  .00006706  00000+0  12409-3 0  9999
2 52795  51.6449   3.0638 0005034 151.5393 297.8763 15.50297674355627
SHENZHOU 14             
1 52797U 22060A   22235.31661118  .00015452  00000+0  17679-3 0  9990
2 52797  41.4725 170.0584 0003879 165.6748 332.9984 15.61801300 75267
ISS DEB                 
1 52952U 98067TP  22235.86081336  .00033337  00000+0  49295-3 0  9992
2 52952  51.6427   0.3657 0002483 182.1958 177.9023 15.54991106  8077
CSS (WENTIAN)           
1 53239U 22085A   22235.31661118  .00015452  00000+0  17679-3 0  9999
2 53239  41.4725 170.0584 0003879 165.6748 332.9984 15.61801300 75269
1998-067TQ              
1 53305U 98067TQ  22235.54101351  .00018128  00000+0  30323-3 0  9993
2 53305  51.6429   2.7218 0002451 145.1859 214.9291 15.51950463  5114
1998-067TR              
1 53306U 98067TR  22235.66577665  .00019162  00000+0  31646-3 0  9990
2 53306  51.6427   2.0566 0001814 148.8059 211.3039 15.52268500  5134
1998-067TS              
1 53307U 98067TS  22235.66544476  .00019052  00000+0  31463-3 0  9990
2 53307  51.6422   2.0528 0001908 129.9342 230.1815 15.52273330  5168
RS3S                    
1 53308U 98067TT  22236.18019636  .00022329  00000+0  36700-3 0  9994
2 53308  51.6424 359.4916 0001651 136.4551 223.6569 15.52296325  5275
RS1S                    
1 53309U 98067TU  22236.17935576  .00023319  00000+0  38198-3 0  9997
2 53309  51.6422 359.4849 0002114 163.0474 197.0587 15.52362198  5225
RS5S                    
1 53310U 98067TV  22235.66469491  .00018579  00000+0  30716-3 0  9990
2 53310  51.6428   2.0496 0001865 161.7620 198.3437 15.52261328  5177
RS6S                    
1 53311U 98067TW  22236.17751581  .00022294  00000+0  36387-3 0  9991
2 53311  51.6420 359.4726 0001423 121.5805 238.5325 15.52493452  5273
RS9S                    
1 53312U 98067TX  22235.66322675  .00019597  00000+0  32208-3 0  9993
2 53312  51.6426   2.0385 0002306 164.5452 195.5608 15.52387597  5131
RS12S                   
1 53313U 98067TY  22235.66228466  .00018713  00000+0  30745-3 0  9990
2 53313  51.6425   2.0330 0001850 172.4714 187.6304 15.52431173  5183
RS4S                    
1 53321U 98067TZ  22236.18066547  .00022346  00000+0  36736-3 0  9990
2 53321  51.6429 359.4962 0001696 148.9740 211.1350 15.52290182  5267
1998-067UA              
1 53322U 98067UA  22235.66524235  .00019140  00000+0  31571-3 0  9996
2 53322  51.6426   2.0527 0001662 139.2269 220.8845 15.52303483  5136
HSU-SAT1                
1 53462U 98067UB  22235.67887298  .00014544  00000+0  24862-3 0  9991
2 53462  51.6424   2.1415 0006667 176.0258 184.0786 15.51510353  1768
FUTABA                  
1 53463U 98067UC  22235.35619626  .00019660  00000+0  33164-3 0  9994
2 53463  51.6421   3.7357 0006710 176.0979 184.0065 15.51637207  1710
TUMNANOSAT              
1 53464U 98067UD  22235.09793984  .00024975  00000+0  41698-3 0  9992
2 53464  51.6419   5.0111 0006711 176.5752 183.5284 15.51768226  1674
DRAGON CRS-25 DEB       
1 53584U 22081B   22236.29219149  .01243455  11349-4  78540-3 0  9993
2 53584  51.6400 357.5319 0113143 186.2502  21.1721 16.04004414  6276
